FLOCK 4G-23             
1 62647U 25009AQ  26068.71663397  .00012440  00000+0  46816-3 0  9993
2 62647  97.3979 150.9478 0000905   7.2707 352.8545 15.27262579 63728
STARLINK-36415          
1 67519U 26012AC  26068.08701705  .00035791  00000+0  13051-2 0  9995
2 67519  43.0042 317.4482 0002117 279.6103  80.4510 15.27547014  7675
